0 COSMOS 1937
1 19038U 88029A   13283.44503258  .00000104  00000-0  45512-4 0  3660
2 19038 074.0457 314.8619 0023167 100.8740 025.7459 14.34845988335356
0 COSMOS 1937
1 19038U 88029A   13285.67856267  .00000112  00000-0  48372-4 0  3686
2 19038 074.0453 310.7715 0023157 095.9800 043.1806 14.34846226335675
0 COSMOS 1937
1 19038U 88029A   13287.05734759  .00000078  00000-0  36465-4 0  3693
2 19038 074.0451 308.2464 0023176 092.9892 325.3462 14.34846906335875
0 COSMOS 1937
1 19038U 88029A   13288.17022510  .00000111  00000-0  47960-4 0  3704
2 19038 074.0451 306.2081 0023169 090.5115 314.0245 14.34847449336038
0 COSMOS 1937
1 19038U 88029A   13289.21708370  .00000096  00000-0  42762-4 0  3713
2 19038 074.0451 304.2907 0023168 088.1745 321.6851 14.34847672336185
0 COSMOS 1937
1 19038U 88029A   13290.49357890  .00000101  00000-0  44661-4 0  3720
2 19038 074.0451 301.9527 0023186 085.4011 075.4816 14.34847974336363
0 COSMOS 1937
1 19038U 88029A   13292.14409706  .00000086  00000-0  39396-4 0  3730
2 19038 074.0453 298.9297 0023216 081.7702 321.3584 14.34848317336608
0 COSMOS 1937
1 19038U 88029A   13293.19569399  .00000121  00000-0  51750-4 0  3740
2 19038 074.0454 297.0036 0023217 079.5642 353.3585 14.34848278336757
0 COSMOS 1937
1 19038U 88029A   13294.53411222  .00000136  00000-0  56759-4 0  3751
2 19038 074.0454 294.5525 0023242 076.6427 067.0392 14.34848652336941
0 COSMOS 1937
1 19038U 88029A   13296.19027846  .00000135  00000-0  56540-4 0  3768
2 19038 074.0455 291.5194 0023305 072.9678 342.1278 14.34849365337187
